start=new Date('2022-02-01T00:00:00.000Z').valueOf();
sats=[{"PERIOD":"95.593","TIME_SYSTEM":"UTC","GP_ID":"195053981","DECAY_DATE":null,"RCS_SIZE":"LARGE","MEAN_MOTION_DDOT":"0.0000000000000","RA_OF_ASC_NODE":"335.5496","APOAPSIS":"548.389","BSTAR":"0.00004538900000","SEMIMAJOR_AXIS":"6925.379","PERIAPSIS":"546.099","LAUNCH_DATE":"2021-04-29","REV_AT_EPOCH":"4242","EPHEMERIS_TYPE":"0","TLE_LINE1":"1 48300U 21036AA  22031.88250711  .00000394  00000-0  45389-4 0  9996","CLASSIFICATION_TYPE":"U","FILE":"3288814","ELEMENT_SET_NO":"999","MEAN_ANOMALY":"293.8653","REF_FRAME":"TEME","SITE":"AFETR","TLE_LINE2":"2 48300  53.0560 335.5496 0001653  66.2509 293.8653 15.06390071 42424","ARG_OF_PERICENTER":"66.2509","OBJECT_ID":"2021-036AA","OBJECT_TYPE":"PAYLOAD","COUNTRY_CODE":"US","NORAD_CAT_ID":"48300","CENTER_NAME":"EARTH","OBJECT_NAME":"STARLINK-2538","ECCENTRICITY":"0.00016530","MEAN_MOTION":"15.06390071","MEAN_MOTION_DOT":"0.00000394","EPOCH":"2022-01-31T21:10:48.614304","INCLINATION":"53.0560","MEAN_ELEMENT_THEORY":"SGP4"},{"RA_OF_ASC_NODE":"335.5483","MEAN_MOTION_DDOT":"0.0000000000000","RCS_SIZE":"LARGE","GP_ID":"195053231","DECAY_DATE":null,"PERIOD":"95.592","TIME_SYSTEM":"UTC","TLE_LINE1":"1 48301U 21036AB  22031.87881905  .00000686  00000-0  64976-4 0  9998","EPHEMERIS_TYPE":"0","REV_AT_EPOCH":"4241","LAUNCH_DATE":"2021-04-29","PERIAPSIS":"545.981","SEMIMAJOR_AXIS":"6925.364","BSTAR":"0.00006497600000","APOAPSIS":"548.478","OBJECT_ID":"2021-036AB","ARG_OF_PERICENTER":"70.5831","TLE_LINE2":"2 48301  53.0569 335.5483 0001803  70.5831 289.5353 15.06394806 42411","SITE":"AFETR","REF_FRAME":"TEME","MEAN_ANOMALY":"289.5353","ELEMENT_SET_NO":"999","FILE":"3288814","CLASSIFICATION_TYPE":"U","INCLINATION":"53.0569","MEAN_ELEMENT_THEORY":"SGP4","EPOCH":"2022-01-31T21:05:29.965920","MEAN_MOTION_DOT":"0.00000686","MEAN_MOTION":"15.06394806","ECCENTRICITY":"0.00018030","OBJECT_NAME":"STARLINK-2537","CENTER_NAME":"EARTH","NORAD_CAT_ID":"48301","COUNTRY_CODE":"US","OBJECT_TYPE":"PAYLOAD"},{"PERIAPSIS":"545.998","LAUNCH_DATE":"2021-04-29","REV_AT_EPOCH":"4241","TLE_LINE1":"1 48302U 21036AC  22031.87513415 -.00000077  00000-0  13744-4 0  9999","EPHEMERIS_TYPE":"0","APOAPSIS":"548.453","BSTAR":"0.00001374400000","SEMIMAJOR_AXIS":"6925.360","RCS_SIZE":"LARGE","MEAN_MOTION_DDOT":"0.0000000000000","RA_OF_ASC_NODE":"335.5758","PERIOD":"95.592","TIME_SYSTEM":"UTC","GP_ID":"195052982","DECAY_DATE":null,"ECCENTRICITY":"0.00017720","MEAN_MOTION":"15.06396160","MEAN_MOTION_DOT":"-0.00000077","INCLINATION":"53.0577","MEAN_ELEMENT_THEORY":"SGP4","EPOCH":"2022-01-31T21:00:11.590560","COUNTRY_CODE":"US","OBJECT_TYPE":"PAYLOAD","NORAD_CAT_ID":"48302","OBJECT_NAME":"STARLINK-2556","CENTER_NAME":"EARTH","REF_FRAME":"TEME","TLE_LINE2":"2 48302  53.0577 335.5758 0001772  59.4066 300.7098 15.06396160 42414","SITE":"AFETR","OBJECT_ID":"2021-036AC","ARG_OF_PERICENTER":"59.4066","FILE":"3288814","CLASSIFICATION_TYPE":"U","ELEMENT_SET_NO":"999","MEAN_ANOMALY":"300.7098"},{"EPOCH":"2022-01-31T19:19:20.431776","INCLINATION":"53.0571","MEAN_ELEMENT_THEORY":"SGP4","MEAN_MOTION_DOT":"0.00001503","MEAN_MOTION":"15.06400910","ECCENTRICITY":"0.00017040","CENTER_NAME":"EARTH","OBJECT_NAME":"STARLINK-2530","NORAD_CAT_ID":"48303","OBJECT_TYPE":"PAYLOAD","COUNTRY_CODE":"US","ARG_OF_PERICENTER":"62.3330","OBJECT_ID":"2021-036AD","SITE":"AFETR","TLE_LINE2":"2 48303  53.0571 335.8782 0001704  62.3330 297.7832 15.06400910 42400","REF_FRAME":"TEME","MEAN_ANOMALY":"297.7832","ELEMENT_SET_NO":"999","CLASSIFICATION_TYPE":"U","FILE":"3288814","EPHEMERIS_TYPE":"0","TLE_LINE1":"1 48303U 21036AD  22031.80509759  .00001503  00000-0  11975-3 0  9996","REV_AT_EPOCH":"4240","LAUNCH_DATE":"2021-04-29","PERIAPSIS":"546.031","SEMIMAJOR_AXIS":"6925.346","BSTAR":"0.00011975000000","APOAPSIS":"548.391","RA_OF_ASC_NODE":"335.8782","MEAN_MOTION_DDOT":"0.0000000000000","RCS_SIZE":"LARGE","GP_ID":"195054233","DECAY_DATE":null,"PERIOD":"95.592","TIME_SYSTEM":"UTC"},{"BSTAR":"0.00000288840000","APOAPSIS":"548.246","SEMIMAJOR_AXIS":"6925.358","LAUNCH_DATE":"2021-04-29","PERIAPSIS":"546.201","EPHEMERIS_TYPE":"0","TLE_LINE1":"1 48304U 21036AE  22031.86776378 -.00000238  00000-0  28884-5 0  9990","REV_AT_EPOCH":"4241","PERIOD":"95.592","TIME_SYSTEM":"UTC","DECAY_DATE":null,"GP_ID":"195054481","RCS_SIZE":"LARGE","RA_OF_ASC_NODE":"335.6048","MEAN_MOTION_DDOT":"0.0000000000000","OBJECT_TYPE":"PAYLOAD","COUNTRY_CODE":"US","CENTER_NAME":"EARTH","OBJECT_NAME":"STARLINK-2524","NORAD_CAT_ID":"48304","MEAN_MOTION":"15.06396811","ECCENTRICITY":"0.00014760","EPOCH":"2022-01-31T20:49:34.790592","INCLINATION":"53.0566","MEAN_ELEMENT_THEORY":"SGP4","MEAN_MOTION_DOT":"-0.00000238","ELEMENT_SET_NO":"999","CLASSIFICATION_TYPE":"U","FILE":"3288814","MEAN_ANOMALY":"295.7535","SITE":"AFETR","TLE_LINE2":"2 48304  53.0566 335.6048 0001476  64.3606 295.7535 15.06396811 42415","REF_FRAME":"TEME","ARG_OF_PERICENTER":"64.3606","OBJECT_ID":"2021-036AE"},{"GP_ID":"195052732","DECAY_DATE":null,"PERIOD":"95.592","TIME_SYSTEM":"UTC","MEAN_MOTION_DDOT":"0.0000000000000","RA_OF_ASC_NODE":"335.6130","RCS_SIZE":"LARGE","SEMIMAJOR_AXIS":"6925.349","APOAPSIS":"548.459","BSTAR":"0.00005333700000","REV_AT_EPOCH":"4241","TLE_LINE1":"1 48305U 21036AF  22031.86407124  .00000513  00000-0  53337-4 0  9996","EPHEMERIS_TYPE":"0","PERIAPSIS":"545.970","LAUNCH_DATE":"2021-04-29","MEAN_ANOMALY":"302.1506","FILE":"3288814","CLASSIFICATION_TYPE":"U","ELEMENT_SET_NO":"999","OBJECT_ID":"2021-036AF","ARG_OF_PERICENTER":"57.9657","REF_FRAME":"TEME","TLE_LINE2":"2 48305  53.0562 335.6130 0001797  57.9657 302.1506 15.06399822 42410","SITE":"AFETR","NORAD_CAT_ID":"48305","OBJECT_NAME":"STARLINK-2519","CENTER_NAME":"EARTH","COUNTRY_CODE":"US","OBJECT_TYPE":"PAYLOAD","MEAN_MOTION_DOT":"0.00000513","INCLINATION":"53.0562","MEAN_ELEMENT_THEORY":"SGP4","EPOCH":"2022-01-31T20:44:15.755136","ECCENTRICITY":"0.00017970","MEAN_MOTION":"15.06399822"},{"REV_AT_EPOCH":"4241","TLE_LINE1":"1 48306U 21036AG  22031.86038863 -.00001715  00000-0 -96294-4 0  9993","EPHEMERIS_TYPE":"0","PERIAPSIS":"546.040","LAUNCH_DATE":"2021-04-29","SEMIMAJOR_AXIS":"6925.357","APOAPSIS":"548.405","BSTAR":"-0.00009629400000","MEAN_MOTION_DDOT":"0.0000000000000","RA_OF_ASC_NODE":"335.6453","RCS_SIZE":"LARGE","DECAY_DATE":null,"GP_ID":"195053482","TIME_SYSTEM":"UTC","PERIOD":"95.592","MEAN_MOTION_DOT":"-0.00001715","INCLINATION":"53.0549","MEAN_ELEMENT_THEORY":"SGP4","EPOCH":"2022-01-31T20:38:57.577632","ECCENTRICITY":"0.00017080","MEAN_MOTION":"15.06397107","NORAD_CAT_ID":"48306","OBJECT_NAME":"STARLINK-2523","CENTER_NAME":"EARTH","COUNTRY_CODE":"US","OBJECT_TYPE":"PAYLOAD","OBJECT_ID":"2021-036AG","ARG_OF_PERICENTER":"57.8111","REF_FRAME":"TEME","TLE_LINE2":"2 48306  53.0549 335.6453 0001708  57.8111 302.3044 15.06397107 42413","SITE":"AFETR","MEAN_ANOMALY":"302.3044","FILE":"3288814","CLASSIFICATION_TYPE":"U","ELEMENT_SET_NO":"999"},{"MEAN_ELEMENT_THEORY":"SGP4","INCLINATION":"53.0563","EPOCH":"2022-01-31T18:58:06.185568","MEAN_MOTION_DOT":"0.00001737","MEAN_MOTION":"15.06405580","ECCENTRICITY":"0.00018770","OBJECT_NAME":"STARLINK-2528","CENTER_NAME":"EARTH","NORAD_CAT_ID":"48307","COUNTRY_CODE":"US","OBJECT_TYPE":"PAYLOAD","OBJECT_ID":"2021-036AH","ARG_OF_PERICENTER":"57.8255","TLE_LINE2":"2 48307  53.0563 335.9486 0001877  57.8255 302.2916 15.06405580 42406","SITE":"AFETR","REF_FRAME":"TEME","MEAN_ANOMALY":"302.2916","ELEMENT_SET_NO":"999","FILE":"3288814","CLASSIFICATION_TYPE":"U","TLE_LINE1":"1 48307U 21036AH  22031.79034937  .00001737  00000-0  13545-3 0  9993","EPHEMERIS_TYPE":"0","REV_AT_EPOCH":"4240","LAUNCH_DATE":"2021-04-29","PERIAPSIS":"545.897","SEMIMAJOR_AXIS":"6925.331","BSTAR":"0.00013545000000","APOAPSIS":"548.496","RA_OF_ASC_NODE":"335.9486","MEAN_MOTION_DDOT":"0.0000000000000","RCS_SIZE":"LARGE","DECAY_DATE":null,"GP_ID":"195053734","TIME_SYSTEM":"UTC","PERIOD":"95.592"},{"OBJECT_NAME":"STARLINK-2532","CENTER_NAME":"EARTH","NORAD_CAT_ID":"48308","COUNTRY_CODE":"US","OBJECT_TYPE":"PAYLOAD","MEAN_ELEMENT_THEORY":"SGP4","INCLINATION":"53.0565","EPOCH":"2022-01-31T07:44:01.109184","MEAN_MOTION_DOT":"0.00001592","MEAN_MOTION":"15.06402748","ECCENTRICITY":"0.00015560","MEAN_ANOMALY":"295.0348","ELEMENT_SET_NO":"999","FILE":"3288447","CLASSIFICATION_TYPE":"U","OBJECT_ID":"2021-036AJ","ARG_OF_PERICENTER":"65.0802","TLE_LINE2":"2 48308  53.0565 338.0594 0001556  65.0802 295.0348 15.06402748 42339","SITE":"AFETR","REF_FRAME":"TEME","SEMIMAJOR_AXIS":"6925.340","BSTAR":"0.00012571000000","APOAPSIS":"548.283","TLE_LINE1":"1 48308U 21036AJ  22031.32223506  .00001592  00000-0  12571-3 0  9992","EPHEMERIS_TYPE":"0","REV_AT_EPOCH":"4233","LAUNCH_DATE":"2021-04-29","PERIAPSIS":"546.128","GP_ID":"195019539","DECAY_DATE":null,"PERIOD":"95.592","TIME_SYSTEM":"UTC","RA_OF_ASC_NODE":"338.0594","MEAN_MOTION_DDOT":"0.0000000000000","RCS_SIZE":"LARGE"},{"OBJECT_TYPE":"PAYLOAD","COUNTRY_CODE":"US","NORAD_CAT_ID":"48309","CENTER_NAME":"EARTH","OBJECT_NAME":"STARLINK-2517","ECCENTRICITY":"0.00016580","MEAN_MOTION":"15.06402355","MEAN_MOTION_DOT":"0.00000982","EPOCH":"2022-01-31T20:23:02.025600","INCLINATION":"53.0551","MEAN_ELEMENT_THEORY":"SGP4","CLASSIFICATION_TYPE":"U","FILE":"3288814","ELEMENT_SET_NO":"999","MEAN_ANOMALY":"286.9032","REF_FRAME":"TEME","SITE":"AFETR","TLE_LINE2":"2 48309  53.0551 335.6936 0001658  73.2139 286.9032 15.06402355 42417","ARG_OF_PERICENTER":"73.2139","OBJECT_ID":"2021-036AK","APOAPSIS":"548.355","BSTAR":"0.00008481800000","SEMIMAJOR_AXIS":"6925.341","PERIAPSIS":"546.058","LAUNCH_DATE":"2021-04-29","REV_AT_EPOCH":"4241","EPHEMERIS_TYPE":"0","TLE_LINE1":"1 48309U 21036AK  22031.84932900  .00000982  00000-0  84818-4 0  9991","PERIOD":"95.592","TIME_SYSTEM":"UTC","DECAY_DATE":null,"GP_ID":"195053232","RCS_SIZE":"LARGE","MEAN_MOTION_DDOT":"0.0000000000000","RA_OF_ASC_NODE":"335.6936"}];
